NORAD_CAT_ID,OBJECT_NAME,OBJECT_TYPE,EPOCH,MEAN_MOTION,ECCENTRICITY,INCLINATION,RA_OF_ASC_NODE,ARG_OF_PERICENTER,MEAN_ANOMALY,BSTAR,MEAN_MOTION_DOT,MEAN_MOTION_DDOT,TLE_LINE0,TLE_LINE1,TLE_LINE2,SEMIMAJOR_AXIS,PERIOD,APOGEE,PERIGEE,DECAYED
54160.0,STARLINK-5233,PAYLOAD,2023-03-23 00:00:00,15.08815634,0.0001094,53.2157,149.4709,112.4557,94.9537,0.0041177,0.00065813,0.0,0 STARLINK-5233,1 54160U 22141D   23082.00001157  .00065813  00000-0  41177-2 0  9990,2 54160  53.2157 149.4709 0001094 112.4557  94.9537 15.08815634 22893,6917.955,95.439,540.577,539.063,0.0
54160.0,STARLINK-5233,PAYLOAD,2023-03-23 11:48:10,15.08846997,0.0001571,53.2177,147.2642,91.5864,268.5308,6.6869e-06,-1.82e-06,0.0,0 STARLINK-5233,1 54160U 22141D   23082.49178616 -.00000182  00000-0  66869-5 0  9995,2 54160  53.2177 147.2642 0001571  91.5864 268.5308 15.08846997 22975,6917.859,95.437,540.811,538.637,0.0
54160.0,STARLINK-5233,PAYLOAD,2023-03-23 21:20:28,15.08848697,0.0001508,53.2176,145.4805,88.1484,271.9681,-1.0395e-05,-4.53e-06,0.0,0 STARLINK-5233,1 54160U 22141D   23082.88922367 -.00000453  00000-0 -10395-4 0  9992,2 54160  53.2176 145.4805 0001508  88.1484 271.9681 15.08848697 23034,6917.854,95.437,540.762,538.676,0.0
54160.0,STARLINK-5233,PAYLOAD,2023-03-24 11:38:54,15.08879594,0.0001217,53.2183,142.8032,90.4244,269.6888,0.00024815,3.668e-05,0.0,0 STARLINK-5233,1 54160U 22141D   23083.48535114  .00003668  00000-0  24815-3 0  9999,2 54160  53.2183 142.8032 0001217  90.4244 269.6888 15.08879594 23125,6917.759,95.435,540.466,538.782,0.0
54160.0,STARLINK-5233,PAYLOAD,2023-03-24 16:25:02,15.08887439,0.0001164,53.2171,141.9093,127.3652,232.7447,0.00032087,4.829e-05,0.0,0 STARLINK-5233,1 54160U 22141D   23083.68405733  .00004829  00000-0  32087-3 0  9994,2 54160  53.2171 141.9093 0001164 127.3652 232.7447 15.08887439 23155,6917.735,95.435,540.406,538.795,0.0
54160.0,STARLINK-5233,PAYLOAD,2023-03-24 21:11:18,15.08803414,0.000132,53.2184,141.0206,93.1848,266.9295,-0.00041332,-6.853e-05,0.0,0 STARLINK-5233,1 54160U 22141D   23083.88285386 -.00006853  00000-0 -41332-3 0  9990,2 54160  53.2184 141.0206 0001320  93.1848 266.9295 15.08803414 23181,6917.992,95.44,540.77,538.944,0.0
54160.0,STARLINK-5233,PAYLOAD,2023-03-25 03:32:51,15.08800696,0.0001025,53.2186,139.8311,98.5623,261.5485,-0.00034414,-5.754e-05,0.0,0 STARLINK-5233,1 54160U 22141D   23084.14781711 -.00005754  00000-0 -34414-3 0  9995,2 54160  53.2186 139.8311 0001025  98.5623 261.5485 15.08800696 23223,6918.001,95.44,540.575,539.156,0.0
54160.0,STARLINK-5233,PAYLOAD,2023-03-25 09:54:23,15.08814922,0.0001536,53.218,138.6432,88.5614,271.5554,-0.00029321,-4.948e-05,0.0,0 STARLINK-5233,1 54160U 22141D   23084.41277245 -.00004948  00000-0 -29321-3 0  9992,2 54160  53.2180 138.6432 0001536  88.5614 271.5554 15.08814922 23263,6917.957,95.439,540.885,538.759,0.0
54160.0,STARLINK-5233,PAYLOAD,2023-03-25 14:40:32,15.0882489,0.0001431,53.2188,137.7461,105.7775,254.3375,-0.00019838,-3.442e-05,0.0,0 STARLINK-5233,1 54160U 22141D   23084.61148322 -.00003442  00000-0 -19838-3 0  9997,2 54160  53.2188 137.7461 0001431 105.7775 254.3375 15.08824890 23295,6917.927,95.439,540.782,538.802,0.0
54160.0,STARLINK-5233,PAYLOAD,2023-03-25 21:02:04,15.08829258,0.000147,53.2183,136.558,102.6436,257.4721,-0.00012402,-2.261e-05,0.0,0 STARLINK-5233,1 54160U 22141D   23084.87644013 -.00002261  00000-0 -12402-3 0  9991,2 54160  53.2183 136.5580 0001470 102.6436 257.4721 15.08829258 23339,6917.913,95.438,540.795,538.761,0.0
54160.0,STARLINK-5233,PAYLOAD,2023-03-26 09:45:08,15.08854119,0.0001377,53.2184,134.1809,87.5982,272.5168,-0.00025539,-4.352e-05,0.0,0 STARLINK-5233,1 54160U 22141D   23085.40635219 -.00004352  00000-0 -25539-3 0  9997,2 54160  53.2184 134.1809 0001377  87.5982 272.5168 15.08854119 23417,6917.837,95.437,540.655,538.75,0.0
54160.0,STARLINK-5233,PAYLOAD,2023-03-26 14:31:17,15.08861096,0.000141,53.2182,133.2866,107.9726,252.142,-0.00015934,-2.824e-05,0.0,0 STARLINK-5233,1 54160U 22141D   23085.60506136 -.00002824  00000-0 -15934-3 0  9994,2 54160  53.2182 133.2866 0001410 107.9726 252.1420 15.08861096 23449,6917.816,95.436,540.656,538.705,0.0
54160.0,STARLINK-5233,PAYLOAD,2023-03-27 03:14:23,15.08807488,9.24e-05,53.2196,130.91,114.3425,245.7663,0.00027475,4.084e-05,0.0,0 STARLINK-5233,1 54160U 22141D   23086.13499900  .00004084  00000-0  27475-3 0  9994,2 54160  53.2196 130.9100 0000924 114.3425 245.7663 15.08807488 23527,6917.98,95.44,540.484,539.206,0.0
54160.0,STARLINK-5233,PAYLOAD,2023-03-27 09:35:56,15.08827122,0.0001573,53.2186,129.7178,111.7058,248.4102,0.00016177,2.287e-05,0.0,0 STARLINK-5233,1 54160U 22141D   23086.39995571  .00002287  00000-0  16177-3 0  9997,2 54160  53.2186 129.7178 0001573 111.7058 248.4102 15.08827122 23560,6917.92,95.438,540.873,538.697,0.0
54160.0,STARLINK-5233,PAYLOAD,2023-03-27 12:46:42,15.08828996,0.0001788,53.2183,129.1203,130.7612,229.3536,0.00015525,2.183e-05,0.0,0 STARLINK-5233,1 54160U 22141D   23086.53243422  .00002183  00000-0  15525-3 0  9995,2 54160  53.2183 129.1203 0001788 130.7612 229.3536 15.08828996 23586,6917.914,95.438,541.016,538.542,0.0
54160.0,STARLINK-5233,PAYLOAD,2023-03-27 14:22:05,15.08832832,0.0001791,53.2185,128.8234,131.5601,228.5545,0.00018229,2.614e-05,0.0,0 STARLINK-5233,1 54160U 22141D   23086.59867096  .00002614  00000-0  18229-3 0  9993,2 54160  53.2185 128.8234 0001791 131.5601 228.5545 15.08832832 23595,6917.902,95.438,541.006,538.528,0.0
54160.0,STARLINK-5233,PAYLOAD,2023-03-28 03:05:11,15.0882915,0.000114,53.2195,126.4514,87.8485,272.2638,6.0702e-06,-1.91e-06,0.0,0 STARLINK-5233,1 54160U 22141D   23087.12860387 -.00000191  00000-0  60702-5 0  9993,2 54160  53.2195 126.4514 0001140  87.8485 272.2638 15.08829150 23679,6917.914,95.438,540.567,538.99,0.0
54160.0,STARLINK-5233,PAYLOAD,2023-03-28 12:37:29,15.0884365,0.0001673,53.2186,124.66,129.2299,230.8842,-2.9706e-05,-7.61e-06,0.0,0 STARLINK-5233,1 54160U 22141D   23087.52603412 -.00000761  00000-0 -29706-4 0  9993,2 54160  53.2186 124.6600 0001673 129.2299 230.8842 15.08843650 23735,6917.869,95.437,540.892,538.577,0.0
54160.0,STARLINK-5233,PAYLOAD,2023-03-28 18:59:01,15.08844432,0.000152,53.2188,123.4721,120.9902,239.124,-2.8221e-05,-7.37e-06,0.0,0 STARLINK-5233,1 54160U 22141D   23087.79099340 -.00000737  00000-0 -28221-4 0  9995,2 54160  53.2188 123.4721 0001520 120.9902 239.1240 15.08844432 23775,6917.867,95.437,540.783,538.68,0.0
54160.0,STARLINK-5233,PAYLOAD,2023-03-29 02:55:58,15.08833588,0.0001541,53.2187,121.9866,112.5167,247.5989,-3.4661e-06,-3.43e-06,0.0,0 STARLINK-5233,1 54160U 22141D   23088.12220083 -.00000343  00000-0 -34661-5 0  9992,2 54160  53.2187 121.9866 0001541 112.5167 247.5989 15.08833588 23829,6917.9,95.438,540.831,538.699,0.0
54160.0,STARLINK-5233,PAYLOAD,2023-03-29 12:28:16,15.08842127,0.0001392,53.2198,120.2026,103.8728,256.2419,2.9443e-07,-2.83e-06,0.0,0 STARLINK-5233,1 54160U 22141D   23088.51963561 -.00000283  00000-0  29443-6 0  9995,2 54160  53.2198 120.2026 0001392 103.8728 256.2419 15.08842127 23881,6917.874,95.437,540.702,538.776,0.0
54160.0,STARLINK-5233,PAYLOAD,2023-03-29 18:49:49,15.08836496,0.0001471,53.2194,119.0145,107.3701,252.7452,-3.7708e-05,-8.88e-06,0.0,0 STARLINK-5233,1 54160U 22141D   23088.78460075 -.00000888  00000-0 -37708-4 0  9999,2 54160  53.2194 119.0145 0001471 107.3701 252.7452 15.08836496 23928,6917.891,95.438,540.774,538.738,0.0
54160.0,STARLINK-5233,PAYLOAD,2023-03-30 10:43:41,15.08836925,0.0001325,53.2194,116.0399,94.2146,265.8998,-5.0302e-05,-1.088e-05,0.0,0 STARLINK-5233,1 54160U 22141D   23089.44700343 -.00001088  00000-0 -50302-4 0  9996,2 54160  53.2194 116.0399 0001325  94.2146 265.8998 15.08836925 24020,6917.89,95.438,540.671,538.838,0.0
54160.0,STARLINK-5233,PAYLOAD,2023-03-30 13:54:26,15.08856295,0.0001351,53.2193,115.4449,102.7112,257.4031,-0.00020925,-3.618e-05,0.0,0 STARLINK-5233,1 54160U 22141D   23089.57947503 -.00003618  00000-0 -20925-3 0  9999,2 54160  53.2193 115.4449 0001351 102.7112 257.4031 15.08856295 24044,6917.831,95.437,540.63,538.761,0.0
54160.0,STARLINK-5233,PAYLOAD,2023-03-31 02:37:29,15.08865228,0.0001429,53.2198,113.0673,69.3755,290.739,0.00023596,3.472e-05,0.0,0 STARLINK-5233,1 54160U 22141D   23090.10937027  .00003472  00000-0  23596-3 0  9993,2 54160  53.2198 113.0673 0001429  69.3755 290.7390 15.08865228 24122,6917.803,95.436,540.657,538.68,0.0
54160.0,STARLINK-5233,PAYLOAD,2023-03-31 13:44:44,15.09157667,0.0001317,53.2196,110.9822,79.7701,280.3439,0.0024497,0.00039258,0.0,0 STARLINK-5233,1 54160U 22141D   23090.57274256  .00039258  00000-0  24497-2 0  9993,2 54160  53.2196 110.9822 0001317  79.7701 280.3439 15.09157667 24192,6916.91,95.417,539.686,537.864,0.0
54160.0,STARLINK-5233,PAYLOAD,2023-03-31 18:30:42,15.09267158,0.0001135,53.2201,110.0894,84.0666,276.0456,0.0032082,0.00051749,0.0,0 STARLINK-5233,1 54160U 22141D   23090.77132263  .00051749  00000-0  32082-2 0  9994,2 54160  53.2201 110.0894 0001135  84.0666 276.0456 15.09267158 24228,6916.575,95.411,539.225,537.655,0.0
54160.0,STARLINK-5233,PAYLOAD,2023-04-01 00:52:06,15.09297666,4.62e-05,53.22,108.8994,73.3938,286.7105,0.003261,0.00052657,0.0,0 STARLINK-5233,1 54160U 22141D   23091.03618992  .00052657  00000-0  32610-2 0  9998,2 54160  53.2200 108.8994 0000462  73.3938 286.7105 15.09297666 24268,6916.482,95.409,538.666,538.027,0.0
54160.0,STARLINK-5233,PAYLOAD,2023-04-01 11:59:34,15.09341045,0.0001145,53.2185,106.8169,68.6184,291.4931,0.0031118,0.00050277,0.0,0 STARLINK-5233,1 54160U 22141D   23091.49970827  .00050277  00000-0  31118-2 0  9994,2 54160  53.2185 106.8169 0001145  68.6184 291.4931 15.09341045 24330,6916.349,95.406,539.006,537.422,0.0
54160.0,STARLINK-5233,PAYLOAD,2023-04-01 18:20:58,15.09365401,0.0001593,53.22,105.6271,79.5257,280.5915,0.0030118,0.00048674,0.0,0 STARLINK-5233,1 54160U 22141D   23091.76456624  .00048674  00000-0  30118-2 0  9995,2 54160  53.2200 105.6271 0001593  79.5257 280.5915 15.09365401 24375,6916.275,95.404,539.242,537.038,0.0
